#cP2023  3  4  0  0  0.00000000      96 ORBIT IGS20 HLM  IGS
## 2251 518400.00000000   900.00000000 60007 0.0000000000000
+   32   G01G02G03G04G05G06G07G08G09G10G11G12G13G14G15G16G17
+        G18G19G20G21G22G23G24G25G26G27G28G29G30G31G32  0  0
+          0  0  0  0  0  0  0  0  0  0  0  0  0  0  0  0  0
+          0  0  0  0  0  0  0  0  0  0  0  0  0  0  0  0  0
+          0  0  0  0  0  0  0  0  0  0  0  0  0  0  0  0  0
++         2  2  2  2  2  2  2  2  2  2  2  2  2  2  2  2  2
++         2  2  2  2  3  2  2  2  2  2  3  2  2  2  2  0  0
++         0  0  0  0  0  0  0  0  0  0  0  0  0  0  0  0  0
++         0  0  0  0  0  0  0  0  0  0  0  0  0  0  0  0  0
++         0  0  0  0  0  0  0  0  0  0  0  0  0  0  0  0  0
%c G  cc GPS ccc cccc cccc cccc cccc ccccc ccccc ccccc ccccc
%c cc cc ccc ccc cccc cccc cccc cccc ccccc ccccc ccccc ccccc
%f  1.2500000  1.025000000  0.00000000000  0.000000000000000
%f  0.0000000  0.000000000  0.00000000000  0.000000000000000
%i    0    0    0    0      0      0      0      0         0
%i    0    0    0    0      0      0      0      0         0
/* RAPID ORBIT COMBINATION FROM WEIGHTED AVERAGE OF:        
/* cod emr esa gfz grg jpl ngs sio usn whu                  
/* REFERENCED TO IGS TIME (IGST) AND TO WEIGHTED MEAN POLE: 
/* PCV:IGS20_2233 OL/AL:FES2014b NONE     Y  ORB:CMB CLK:CMB
*  2023  3  4  2 15  0.00000000
PG01  13152.906862  13419.097292 -19233.971439    206.410974  7     3  96       
PG02 -16337.435167 -11691.621035  17875.704456   -616.898033  7  6  5  98       
PG03  12843.202522  23300.538455    891.314384   -355.442945  7  6  6 116       
PG04   5853.284307  16265.516079  20143.215256    -15.043356  7  5  5  98       
PG05  -2482.201289 -22672.722432  13338.990335   -118.099650  7  3  3  79       
PG06  23670.090237  -5873.514852  10704.375939    578.256495  6  4  5  79       
PG07  24057.994464   7762.507378   9354.624048    230.150765  8  4  8 105       
PG08  -3547.541801  22977.812461 -12530.155433   -111.233383  5  5  3  97       
PG09  14330.853341   5706.565399  21551.314530   -207.494908  6  3  6 100       
PG10 -16018.898209     77.361231 -21067.694293    -27.086494  7  7  4 122       
PG11  12484.638382 -12593.816403  19773.908321   -120.033396  6  7  6  96       
PG12  -9965.476033 -24665.094040  -1050.684556   -347.227186  9  5  4  73       
PG13  11910.998285 -22352.379788  -7828.606146    485.049255  4  7  6 111       
PG14  17264.947241   2802.312513 -20018.598595    -13.166777  7  2  5  85       
PG15     84.212905 -23308.852758 -12931.019604     18.440334  9  7  5 123       
PG16  -2236.993090  21462.038982  14865.170810   -517.331268  6  5  5 102       
PG17  19259.494483  -8017.114298 -16068.505514    703.457049  8  6  3  96       
PG18 -25634.208338  -5071.755183   5173.693598   -164.579996  9  5  6  76       
PG19  19724.428339 -15494.522988  -8523.099079    285.313621  8  6  4  94       
PG20   5469.392239 -16669.379423  20032.481408    447.203930  7  4  4  47       
PG21   4894.301904  14567.180385 -21163.942421    154.245797  6  4  3  95       
PG22 -18146.625921  18585.154805  -4646.479182    438.370296 13 13 12 110       
PG23 -18443.975591 -11613.695579 -15273.488901      8.788269  5  9  6 118       
PG24  -9232.839525 -14761.717478 -20505.977042    -97.340784  8  6  3  94       
PG25 -16539.190588 -19414.648830   7591.868093    424.826322  7  8  5  94       
PG26 -11285.663706  11366.691012  21036.132760    241.859355  5  4  4  81       
PG27 -12259.393760  23152.103829  -2882.978740     89.067601  4  1  3  95       
PG28 -24443.996393   5819.737350   8565.943000     32.684458 10  7  6 110       
PG29 -11176.584440  -9775.168528  21969.273341   -589.118714  6  5  7  79       
PG30  26478.759120   -988.764518  -3208.034665   -528.273985  5  6  6 116       
PG31 -22670.920057   7150.261793  12133.406048   -210.740393  8  8  5  76       
PG32 -18964.724971  11191.003055 -14535.781405   -413.170438  8  7  5 119       
*  2023  3  4  2 30  0.00000000
PG01  10955.036718  13419.372293 -20556.403839    206.407350  7  2  3 101       
PG02 -14325.161695 -11961.540597  19431.526126   -616.895358  7  6  5  89       
PG03  12645.984939  23355.403835  -1989.489470   -355.437727  7  6  6 114       
PG04   4555.846140  18087.010492  18875.350038    -15.035682  7  6  6  94       
PG05  -1425.763304 -21352.944818  15483.576120   -118.101381  6  4  3  78       
PG06  24727.343554  -5705.372059   8072.529497    578.259609  5  4  5  85       
PG07  22915.383100   7954.486575  11808.545657    230.144161  7  3  8 101       
PG08  -4392.118591  23993.481278 -10075.258357   -111.236268  5  4  4 112       
PG09  13118.766359   7879.436380  21633.863605   -207.488273  6  3  6 100       
PG10 -17142.101774  -2022.146041 -20099.313874    -27.087373  8  7  4 121       
PG11  14655.018636 -12344.029248  18390.136304   -120.043237  6  7  6 101       
PG12  -9649.152184 -24537.482991  -3892.499900   -347.231452  9  5  3  83       
PG13  12539.743924 -22773.732376  -5071.337970    485.054833  4  7  6 126       
PG14  18187.586602   4826.507819 -18790.046218    -13.158047  7  2  5  95       
PG15    850.649650 -24396.036590 -10580.330691     18.443567  9  7  6 124       
PG16  -3194.289462  19831.752803  16829.116109   -517.329435  6  6  4 111       
PG17  18248.052665  -6273.726227 -17866.343925    703.458810  7  6  2 104       
PG18 -24884.467048  -5249.892329   7915.339528   -164.594553  9  5  6  99       
PG19  19234.244615 -14487.755283 -11116.464293    285.318113  8  6  3  98       
PG20   7003.092825 -14905.995776  20908.396495    447.201414  8  5  4  69       
PG21   2345.637676  14753.950381 -21387.994289    154.245863  5  4  3 113       
PG22 -17928.682610  17827.989596  -7402.985918    438.376950 13 13 12  97       
PG23 -19141.752156 -13080.268473 -13085.160448      8.789972  5  9  6 111       
PG24  -6927.689066 -15002.139513 -21202.118088    -97.354817  8  6  1  98       
PG25 -16697.784896 -20184.782281   4887.185843    424.829068  7  7  4  95       
PG26 -12666.108045   9333.731889  21278.739732    241.859522  5  4  4  80       
PG27 -12557.780254  23140.105817      7.784680     89.059748  4  3  4 111       
PG28 -25279.860822   5602.338625   5870.098760     32.695129 10  8  7 123       
PG29  -9724.211889 -11813.214489  21650.307883   -589.120585  7  5  6  81       
PG30  26690.563603   -679.302922   -428.390863   -528.272722  4  5  6  78       
PG31 -23922.746070   6901.556622   9700.424391   -210.741213  8  8  5 109       
PG32 -18227.051239   9523.757881 -16527.060275   -413.180406  8  7  6 116       
*  2023  3  4  2 45  0.00000000
PG01   8630.963456  13551.577062 -21537.643476    206.403782  7  4  4 108       
PG02 -12181.826729 -12358.597412  20666.972789   -616.893067  7  6  5  92       
PG03  12277.057868  23148.795047  -4836.345065   -355.432474  8  6  6 121       
PG04   3433.767239  19832.870958  17281.808113    -15.028060  7  6  6  98       
PG05   -168.456430 -19903.077003  17357.277149   -118.103049  6  4  3  57       
PG06  25487.254733  -5583.664219   5302.837641    578.262729  5  4  6  69       
PG07  21524.353984   8216.410166  14068.532770    230.137557  6  2  8  95       
PG08  -5059.309985  24790.297505  -7443.630930   -111.238210  5  3  5 104       
PG09  12024.380539  10101.109827  21341.603133   -207.481768  6  3  6  91       
PG10 -18305.874010  -3944.970980 -18782.470436    -27.089572  8  7  4 118       
PG11  16661.181057 -12209.126258  16689.839564   -120.053115  6  8  7  90       
PG12  -9175.823550 -24148.849079  -6668.033770   -347.236029  8  5  3  85       
PG13  12964.190893 -22966.616775  -2226.087104    485.060021  4  7  5 125       
PG14  19130.186301   6666.029938 -17239.318499    -13.149327  6  2  5 103       
PG15   1477.792686 -25261.488245  -8048.504819     18.446198  9  7  5 119       
PG16  -4331.059728  18068.681579  18491.570054   -517.327277  6  6  4 100       
PG17  17234.678264  -4312.928697 -19347.435489    703.460779  7  6  2 100       
PG18 -23843.326640  -5478.610727  10521.898842   -164.609103  8  5  6  86       
PG19  18643.343353 -13221.521199 -13517.712444    285.322987  7  6  3  90       
PG20   8677.505595 -13162.398453  21426.777790    447.199323  8  6  4  39       
PG21   -202.383701  15070.989533 -21223.783506    154.245813  5  4  4 118       
PG22 -17588.886661  16796.118524 -10028.909447    438.383526 12 13 11  70       
PG23 -19770.361146 -14292.115407 -10673.188226      8.791685  4  9  6 108       
PG24  -4576.796901 -15363.774478 -21546.302370    -97.368799  7  7  2  99       
PG25 -16726.780459 -20685.033717   2099.183508    424.831813  8  7  5  73       
PG26 -14143.392283   7366.166498  21151.205753    241.859693  5  4  4  41       
PG27 -12708.008843  22847.760050   2898.383869     89.051854  4  4  5 103       
PG28 -25815.777482   5402.549813   3073.104229     32.705836 10  8  7 111       
PG29  -8414.938324 -13878.945057  20956.756747   -589.122044  7  5  6  81       
PG30  26605.241620   -369.551868   2358.519688   -528.271513  3  4  6  77       
PG31 -24901.450084   6712.332601   7103.458170   -210.741918  7  8  4 108       
PG32 -17481.267638   7632.580353 -18228.182943   -413.190490  8  7  6 114       
EOF
